NORAD_CAT_ID,OBJECT_NAME,OBJECT_TYPE,EPOCH,MEAN_MOTION,ECCENTRICITY,INCLINATION,RA_OF_ASC_NODE,ARG_OF_PERICENTER,MEAN_ANOMALY,BSTAR,MEAN_MOTION_DOT,MEAN_MOTION_DDOT,TLE_LINE0,TLE_LINE1,TLE_LINE2,SEMIMAJOR_AXIS,PERIOD,APOGEE,PERIGEE,DECAYED
55270.0,STARLINK-5301,PAYLOAD,2023-02-04 00:00:00,15.75845819,0.0003567,70.0,25.4919,266.9775,156.4174,-0.0059238,-0.00832362,0.0,0 STARLINK-5301,1 55270U 23010B   23035.00001157 -.00832362  00000-0 -59238-2 0  9997,2 55270  70.0000  25.4919 0003567 266.9775 156.4174 15.75845819  2936,6720.362,91.379,344.625,339.83,0.0
55270.0,STARLINK-5301,PAYLOAD,2023-02-04 14:00:01,15.74810933,0.0003607,69.9994,23.8378,259.8319,230.7173,-0.0063373,-0.00849272,0.0,0 STARLINK-5301,1 55270U 23010B   23035.58334491 -.00849272  00000-0 -63373-2 0  9993,2 55270  69.9994  23.8378 0003607 259.8319 230.7173 15.74810933  1309,6723.306,91.44,347.596,342.746,0.0
55270.0,STARLINK-5301,PAYLOAD,2023-02-04 22:00:00,15.74201892,0.0003481,70.0001,22.8952,263.3592,316.0134,-0.0063726,-0.00833207,0.0,0 STARLINK-5301,1 55270U 23010B   23035.91667824 -.00833207  00000-0 -63726-2 0  9992,2 55270  70.0001  22.8952 0003481 263.3592 316.0134 15.74201892  1304,6725.04,91.475,349.246,344.564,0.0
55270.0,STARLINK-5301,PAYLOAD,2023-02-05 00:00:02,15.74053406,0.0003631,70.0003,22.6594,263.8885,67.642,-0.0064254,-0.00834643,0.0,0 STARLINK-5301,1 55270U 23010B   23036.00002315 -.00834643  00000-0 -64254-2 0  9993,2 55270  70.0003  22.6594 0003631 263.8885  67.6420 15.74053406  3094,6725.463,91.484,349.77,344.886,0.0
55270.0,STARLINK-5301,PAYLOAD,2023-02-05 14:00:01,15.73020239,0.0003669,69.997,21.0021,269.7374,125.2224,-0.0069949,-0.00865804,0.0,0 STARLINK-5301,1 55270U 23010B   23036.58335648 -.00865804  00000-0 -69949-2 0  9993,2 55270  69.9970  21.0021 0003669 269.7374 125.2224 15.73020239  1303,6728.408,91.544,352.741,347.804,0.0
55270.0,STARLINK-5301,PAYLOAD,2023-02-05 22:00:00,15.72429245,0.0003486,69.9976,20.0612,266.5324,215.0195,-0.0070487,-0.00852,0.0,0 STARLINK-5301,1 55270U 23010B   23036.91667824 -.00852000  00000-0 -70487-2 0  9997,2 55270  69.9976  20.0612 0003486 266.5324 215.0195 15.72429245  1305,6730.094,91.578,354.305,349.612,0.0
55270.0,STARLINK-5301,PAYLOAD,2023-02-06 06:00:00,15.71783915,0.0003545,69.9977,19.121,272.1697,295.3567,-0.0067434,-0.00798185,0.0,0 STARLINK-5301,1 55270U 23010B   23037.25001157 -.00798185  00000-0 -67434-2 0  9997,2 55270  69.9977  19.1210 0003545 272.1697 295.3567 15.71783915  3291,6731.936,91.616,356.187,351.414,0.0
55270.0,STARLINK-5301,PAYLOAD,2023-02-06 14:00:01,15.71234183,0.0003582,69.9974,18.1816,269.4698,23.274,-0.0076663,-0.00878067,0.0,0 STARLINK-5301,1 55270U 23010B   23037.58334491 -.00878067  00000-0 -76663-2 0  9995,2 55270  69.9974  18.1816 0003582 269.4698  23.2740 15.71234183  1309,6733.506,91.648,357.783,352.959,0.0
55270.0,STARLINK-5301,PAYLOAD,2023-02-06 22:00:00,15.70605556,0.0003701,69.9983,17.2431,266.4628,110.7959,-0.0069631,-0.00785474,0.0,0 STARLINK-5301,1 55270U 23010B   23037.91667824 -.00785474  00000-0 -69631-2 0  9997,2 55270  69.9983  17.2431 0003701 266.4628 110.7959 15.70605556  1304,6735.302,91.684,359.66,354.674,0.0
55270.0,STARLINK-5301,PAYLOAD,2023-02-07 00:00:00,15.70400407,0.0003634,69.9986,17.0084,268.8175,219.4716,-0.0056035,-0.00637798,0.0,0 STARLINK-5301,1 55270U 23010B   23038.00001157 -.00637798  00000-0 -56035-2 0  9998,2 55270  69.9986  17.0084 0003634 268.8175 219.4716 15.70400407  3417,6735.889,91.696,360.202,355.306,0.0
55270.0,STARLINK-5301,PAYLOAD,2023-02-07 08:00:01,15.69887673,0.0003488,69.9991,16.0709,273.5597,298.3549,0.00059184,0.00071453,0.0,0 STARLINK-5301,1 55270U 23010B   23038.33334491  .00071453  00000-0  59184-3 0  9991,2 55270  69.9991  16.0709 0003488 273.5597 298.3549 15.69887673  3461,6737.355,91.726,361.57,356.87,0.0
55270.0,STARLINK-5301,PAYLOAD,2023-02-07 14:00:01,15.69960127,0.0003319,69.9996,15.3679,269.1457,275.2515,-0.00073774,-0.00088126,0.0,0 STARLINK-5301,1 55270U 23010B   23038.58334491 -.00088126  00000-0 -73774-3 0  9996,2 55270  69.9996  15.3679 0003319 269.1457 275.2515 15.69960127  1307,6737.148,91.722,361.249,356.777,0.0
55270.0,STARLINK-5301,PAYLOAD,2023-02-07 22:00:00,15.69940898,0.0003456,70.0003,14.4307,262.7614,4.9669,-4.4465e-05,-5.56e-05,0.0,0 STARLINK-5301,1 55270U 23010B   23038.91667824 -.00005560  00000-0 -44465-4 0  9999,2 55270  70.0003  14.4307 0003456 262.7614   4.9669 15.69940898  1303,6737.203,91.723,361.396,356.74,0.0
55270.0,STARLINK-5301,PAYLOAD,2023-02-08 00:00:00,15.69971628,0.0003485,70.0005,14.1964,264.3822,114.1753,-0.00060666,-0.00072676,0.0,0 STARLINK-5301,1 55270U 23010B   23039.00001157 -.00072676  00000-0 -60666-3 0  9993,2 55270  70.0005  14.1964 0003485 264.3822 114.1753 15.69971628  3565,6737.115,91.721,361.328,356.632,0.0
55270.0,STARLINK-5301,PAYLOAD,2023-02-08 14:00:01,15.69907478,0.0003417,70.0002,12.5562,263.2942,171.129,-0.00016432,-0.00019911,0.0,0 STARLINK-5301,1 55270U 23010B   23039.58334491 -.00019911  00000-0 -16432-3 0  9991,2 55270  70.0002  12.5562 0003417 263.2942 171.1290 15.69907478  1305,6737.299,91.725,361.466,356.862,0.0
55270.0,STARLINK-5301,PAYLOAD,2023-02-08 16:00:00,15.69866854,0.0003439,70.0004,12.3219,261.4508,283.811,0.00061234,0.00073893,0.0,0 STARLINK-5301,1 55270U 23010B   23039.66667824  .00073893  00000-0  61234-3 0  9996,2 55270  70.0004  12.3219 0003439 261.4508 283.8110 15.69866854  3672,6737.415,91.728,361.597,356.963,0.0
55270.0,STARLINK-5301,PAYLOAD,2023-02-08 22:00:00,15.69904231,0.0003462,70.0005,11.6193,255.2754,262.4682,0.00042517,0.00051182,0.0,0 STARLINK-5301,1 55270U 23010B   23039.91667824  .00051182  00000-0  42517-3 0  9994,2 55270  70.0005  11.6193 0003462 255.2754 262.4682 15.69904231  1303,6737.308,91.725,361.505,356.841,0.0
55270.0,STARLINK-5301,PAYLOAD,2023-02-09 08:00:01,15.69915358,0.0003412,70.0002,10.4477,268.4802,83.4493,2.8532e-05,3.218e-05,0.0,0 STARLINK-5301,1 55270U 23010B   23040.33334491  .00003218  00000-0  28532-4 0  9992,2 55270  70.0002  10.4477 0003412 268.4802  83.4493 15.69915358  3773,6737.276,91.725,361.44,356.842,0.0
55270.0,STARLINK-5301,PAYLOAD,2023-02-09 12:00:00,15.69927741,0.0003404,69.9999,9.979,269.0815,304.51,-0.00026866,-0.00032398,0.0,0 STARLINK-5301,1 55270U 23010B   23040.50001157 -.00032398  00000-0 -26866-3 0  9991,2 55270  69.9999   9.9790 0003404 269.0815 304.5100 15.69927741  1306,6737.241,91.724,361.399,356.812,0.0
55270.0,STARLINK-5301,PAYLOAD,2023-02-09 22:00:00,15.69943374,0.0003389,70.0005,8.8076,266.4196,141.3001,-9.1967e-05,-0.00011265,0.0,0 STARLINK-5301,1 55270U 23010B   23040.91667824 -.00011265  00000-0 -91967-4 0  9990,2 55270  70.0005   8.8076 0003389 266.4196 141.3001 15.69943374  1304,6737.196,91.723,361.344,356.778,0.0
55270.0,STARLINK-5301,PAYLOAD,2023-02-10 03:54:52,15.69939763,0.0003638,70.0001,8.1152,266.4641,93.6139,7.9624e-05,9.379e-05,0.0,0 STARLINK-5301,1 55270U 23010B   23041.16310586  .00009379  00000-0  79624-4 0  9995,2 55270  70.0001   8.1152 0003638 266.4641  93.6139 15.69939763  4222,6737.206,91.723,361.522,356.62,0.0
55270.0,STARLINK-5301,PAYLOAD,2023-02-10 10:01:52,15.6994058,0.0003389,70.0002,7.3984,266.7965,93.2843,9.4604e-05,0.00011185,0.0,0 STARLINK-5301,1 55270U 23010B   23041.41797211  .00011185  00000-0  94604-4 0  9990,2 55270  70.0002   7.3984 0003389 266.7965  93.2843 15.69940580  3947,6737.204,91.723,361.352,356.786,0.0
55270.0,STARLINK-5301,PAYLOAD,2023-02-11 04:22:55,15.69915449,0.0003673,70.0,5.2485,266.8889,93.1886,1.5239e-05,1.619e-05,0.0,0 STARLINK-5301,1 55270U 23010B   23042.18258356  .00001619  00000-0  15239-4 0  9995,2 55270  70.0000   5.2485 0003673 266.8889  93.1886 15.69915449  4066,6737.276,91.725,361.615,356.666,0.0
55270.0,STARLINK-5301,PAYLOAD,2023-02-11 08:58:09,15.69935336,0.0003204,69.9999,4.7105,261.9929,98.0903,6.2723e-05,7.339e-05,0.0,0 STARLINK-5301,1 55270U 23010B   23042.37372653  .00007339  00000-0  62723-4 0  9998,2 55270  69.9999   4.7105 0003204 261.9929  98.0903 15.69935336  4098,6737.219,91.724,361.243,356.925,0.0
55270.0,STARLINK-5301,PAYLOAD,2023-02-12 03:19:11,15.6992763,0.0003403,70.0026,2.5632,250.5311,109.5517,5.3039e-05,6.17e-05,0.0,0 STARLINK-5301,1 55270U 23010B   23043.13833220  .00006170  00000-0  53039-4 0  9997,2 55270  70.0026   2.5632 0003403 250.5311 109.5517 15.69927630  4214,6737.241,91.724,361.399,356.813,0.0
55270.0,STARLINK-5301,PAYLOAD,2023-02-12 14:01:27,15.69929974,0.0002885,69.9999,1.3078,249.811,110.2776,4.3546e-05,5.028e-05,0.0,0 STARLINK-5301,1 55270U 23010B   23043.58434806  .00005028  00000-0  43546-4 0  9996,2 55270  69.9999   1.3078 0002885 249.8110 110.2776 15.69929974  4604,6737.234,91.724,361.043,357.156,0.0
55270.0,STARLINK-5301,PAYLOAD,2023-02-13 03:47:13,15.6993421,0.00036,70.0005,359.6956,256.2975,103.782,3.9765e-05,4.573e-05,0.0,0 STARLINK-5301,1 55270U 23010B   23044.15779406  .00004573  00000-0  39765-4 0  9990,2 55270  70.0005 359.6956 0003600 256.2975 103.7820 15.69934210  4376,6737.222,91.724,361.513,356.662,0.0
55270.0,STARLINK-5301,PAYLOAD,2023-02-13 09:54:13,15.69937824,0.0003682,69.9995,358.9785,256.8791,103.1994,4.2796e-05,4.939e-05,0.0,0 STARLINK-5301,1 55270U 23010B   23044.41265867  .00004939  00000-0  42796-4 0  9994,2 55270  69.9995 358.9785 0003682 256.8791 103.1994 15.69937824  4735,6737.212,91.723,361.558,356.596,0.0
55270.0,STARLINK-5301,PAYLOAD,2023-02-13 14:29:29,15.69922735,0.0003015,70.0015,358.4406,258.9384,101.1472,-1.6579e-06,-4.12e-06,0.0,0 STARLINK-5301,1 55270U 23010B   23044.60381549 -.00000412  00000-0 -16579-5 0  9996,2 55270  70.0015 358.4406 0003015 258.9384 101.1472 15.69922735  4449,6737.255,91.724,361.151,357.089,0.0
55270.0,STARLINK-5301,PAYLOAD,2023-02-13 23:40:00,15.69926569,0.0003293,70.0006,357.3674,260.5554,99.527,2.2078e-05,2.443e-05,0.0,0 STARLINK-5301,1 55270U 23010B   23044.98611461  .00002443  00000-0  22078-4 0  9990,2 55270  70.0006 357.3674 0003293 260.5554  99.5270 15.69926569  4827,6737.244,91.724,361.328,356.891,0.0
